STARLINK-1565
1 16037C 20055L   21326.14323012 -.00019347  00000-0 -12963-2 0  3265
2 16037  53.0548 328.1083 0001834  58.7639 235.7193 15.06414544    11
